[{"OBJECT_NAME":"SL-8 R/B","OBJECT_ID":"1979-089B","EPOCH":"2026-03-06T06:39:39.024864","MEAN_MOTION":14.4234807,"ECCENTRICITY":0.00171467,"INCLINATION":74.0671,"RA_OF_ASC_NODE":97.361,"ARG_OF_PERICENTER":270.3782,"MEAN_ANOMALY":89.541,"EPHEMERIS_TYPE":0,"CLASSIFICATION_TYPE":"U","NORAD_CAT_ID":11574,"ELEMENT_SET_NO":999,"REV_AT_EPOCH":43561,"BSTAR":0.00011726653,"MEAN_MOTION_DOT":3.62e-6,"MEAN_MOTION_DDOT":0},{"OBJECT_NAME":"SL-14 R/B","OBJECT_ID":"1980-005B","EPOCH":"2026-03-06T04:05:41.205984","MEAN_MOTION":14.90925667,"ECCENTRICITY":0.001588,"INCLINATION":82.5152,"RA_OF_ASC_NODE":310.5743,"ARG_OF_PERICENTER":169.7048,"MEAN_ANOMALY":190.45,"EPHEMERIS_TYPE":0,"CLASSIFICATION_TYPE":"U","NORAD_CAT_ID":11672,"ELEMENT_SET_NO":999,"REV_AT_EPOCH":47596,"BSTAR":7.6182126e-5,"MEAN_MOTION_DOT":7.78e-6,"MEAN_MOTION_DDOT":0},{"OBJECT_NAME":"SL-8 R/B","OBJECT_ID":"1981-003B","EPOCH":"2026-03-06T02:14:08.587680","MEAN_MOTION":15.10802212,"ECCENTRICITY":0.02625413,"INCLINATION":82.9382,"RA_OF_ASC_NODE":293.3501,"ARG_OF_PERICENTER":191.1298,"MEAN_ANOMALY":168.4063,"EPHEMERIS_TYPE":0,"CLASSIFICATION_TYPE":"U","NORAD_CAT_ID":12139,"ELEMENT_SET_NO":999,"REV_AT_EPOCH":31413,"BSTAR":0.00051595727,"MEAN_MOTION_DOT":0.00020037,"MEAN_MOTION_DDOT":0},{"OBJECT_NAME":"SL-3 R/B","OBJECT_ID":"1981-046B","EPOCH":"2026-03-06T05:10:02.084160","MEAN_MOTION":15.41884845,"ECCENTRICITY":0.0019834,"INCLINATION":81.23,"RA_OF_ASC_NODE":293.9167,"ARG_OF_PERICENTER":34.135,"MEAN_ANOMALY":326.1163,"EPHEMERIS_TYPE":0,"CLASSIFICATION_TYPE":"U","NORAD_CAT_ID":12465,"ELEMENT_SET_NO":999,"REV_AT_EPOCH":43789,"BSTAR":0.00030376129,"MEAN_MOTION_DOT":0.00013023,"MEAN_MOTION_DDOT":0},{"OBJECT_NAME":"SL-3 R/B","OBJECT_ID":"1981-103B","EPOCH":"2026-03-06T06:52:25.887936","MEAN_MOTION":15.21326452,"ECCENTRICITY":0.00124924,"INCLINATION":81.1584,"RA_OF_ASC_NODE":217.424,"ARG_OF_PERICENTER":298.7704,"MEAN_ANOMALY":61.2272,"EPHEMERIS_TYPE":0,"CLASSIFICATION_TYPE":"U","NORAD_CAT_ID":12904,"ELEMENT_SET_NO":999,"REV_AT_EPOCH":97271,"BSTAR":0.0003262523,"MEAN_MOTION_DOT":7.342e-5,"MEAN_MOTION_DDOT":0},{"OBJECT_NAME":"SL-3 R/B","OBJECT_ID":"1982-013B","EPOCH":"2026-03-06T05:31:26.109120","MEAN_MOTION":15.21972828,"ECCENTRICITY":0.0022428,"INCLINATION":81.1765,"RA_OF_ASC_NODE":164.8242,"ARG_OF_PERICENTER":188.9455,"MEAN_ANOMALY":171.1381,"EPHEMERIS_TYPE":0,"CLASSIFICATION_TYPE":"U","NORAD_CAT_ID":13068,"ELEMENT_SET_NO":999,"REV_AT_EPOCH":40382,"BSTAR":0.00027438147,"MEAN_MOTION_DOT":6.327e-5,"MEAN_MOTION_DDOT":0},{"OBJECT_NAME":"SL-3 R/B","OBJECT_ID":"1982-039B","EPOCH":"2026-03-06T05:04:05.450016","MEAN_MOTION":15.10055979,"ECCENTRICITY":0.00298152,"INCLINATION":81.1583,"RA_OF_ASC_NODE":219.9721,"ARG_OF_PERICENTER":335.774,"MEAN_ANOMALY":24.2081,"EPHEMERIS_TYPE":0,"CLASSIFICATION_TYPE":"U","NORAD_CAT_ID":13154,"ELEMENT_SET_NO":999,"REV_AT_EPOCH":38111,"BSTAR":0.00021657814,"MEAN_MOTION_DOT":3.583e-5,"MEAN_MOTION_DDOT":0},{"OBJECT_NAME":"SL-3 R/B","OBJECT_ID":"1982-079B","EPOCH":"2026-03-06T07:40:51.704832","MEAN_MOTION":15.24736254,"ECCENTRICITY":0.00249015,"INCLINATION":81.1477,"RA_OF_ASC_NODE":197.0545,"ARG_OF_PERICENTER":175.9353,"MEAN_ANOMALY":184.2088,"EPHEMERIS_TYPE":0,"CLASSIFICATION_TYPE":"U","NORAD_CAT_ID":13403,"ELEMENT_SET_NO":999,"REV_AT_EPOCH":37718,"BSTAR":0.00033900666,"MEAN_MOTION_DOT":8.493e-5,"MEAN_MOTION_DDOT":0},{"OBJECT_NAME":"SL-14 R/B","OBJECT_ID":"1982-092B","EPOCH":"2026-03-06T06:40:17.311296","MEAN_MOTION":14.86662436,"ECCENTRICITY":0.00192042,"INCLINATION":82.57,"RA_OF_ASC_NODE":144.5903,"ARG_OF_PERICENTER":315.612,"MEAN_ANOMALY":104.2493,"EPHEMERIS_TYPE":0,"CLASSIFICATION_TYPE":"U","NORAD_CAT_ID":13553,"ELEMENT_SET_NO":999,"REV_AT_EPOCH":32842,"BSTAR":7.0757614e-5,"MEAN_MOTION_DOT":6.54e-6,"MEAN_MOTION_DDOT":0},{"OBJECT_NAME":"SL-3 R/B","OBJECT_ID":"1983-010B","EPOCH":"2026-03-06T06:23:49.903584","MEAN_MOTION":15.46205289,"ECCENTRICITY":0.0018308,"INCLINATION":81.1067,"RA_OF_ASC_NODE":6.4427,"ARG_OF_PERICENTER":62.0592,"MEAN_ANOMALY":298.2503,"EPHEMERIS_TYPE":0,"CLASSIFICATION_TYPE":"U","NORAD_CAT_ID":13819,"ELEMENT_SET_NO":999,"REV_AT_EPOCH":35741,"BSTAR":0.00039771912,"MEAN_MOTION_DOT":0.00019712,"MEAN_MOTION_DDOT":0},{"OBJECT_NAME":"SL-3 R/B","OBJECT_ID":"1983-075B","EPOCH":"2026-03-06T07:18:46.742688","MEAN_MOTION":15.38317076,"ECCENTRICITY":0.00198594,"INCLINATION":97.6139,"RA_OF_ASC_NODE":69.7536,"ARG_OF_PERICENTER":239.0613,"MEAN_ANOMALY":120.868,"EPHEMERIS_TYPE":0,"CLASSIFICATION_TYPE":"U","NORAD_CAT_ID":14208,"ELEMENT_SET_NO":999,"REV_AT_EPOCH":32963,"BSTAR":0.00034989853,"MEAN_MOTION_DOT":0.00013221,"MEAN_MOTION_DDOT":0},{"OBJECT_NAME":"COSMOS 1536","OBJECT_ID":"1984-013A","EPOCH":"2026-03-06T04:10:22.609056","MEAN_MOTION":15.23769248,"ECCENTRICITY":0.00127009,"INCLINATION":82.5431,"RA_OF_ASC_NODE":111.3455,"ARG_OF_PERICENTER":297.3228,"MEAN_ANOMALY":62.6715,"EPHEMERIS_TYPE":0,"CLASSIFICATION_TYPE":"U","NORAD_CAT_ID":14699,"ELEMENT_SET_NO":999,"REV_AT_EPOCH":27208,"BSTAR":0.00024446811,"MEAN_MOTION_DOT":5.924e-5,"MEAN_MOTION_DDOT":0},{"OBJECT_NAME":"SL-14 R/B","OBJECT_ID":"1984-027B","EPOCH":"2026-03-05T23:45:00.161280","MEAN_MOTION":14.8597146,"ECCENTRICITY":0.00176758,"INCLINATION":82.5381,"RA_OF_ASC_NODE":248.4839,"ARG_OF_PERICENTER":350.5336,"MEAN_ANOMALY":9.5544,"EPHEMERIS_TYPE":0,"CLASSIFICATION_TYPE":"U","NORAD_CAT_ID":14820,"ELEMENT_SET_NO":999,"REV_AT_EPOCH":24708,"BSTAR":6.4757898e-5,"MEAN_MOTION_DOT":5.91e-6,"MEAN_MOTION_DDOT":0},{"OBJECT_NAME":"SL-8 R/B","OBJECT_ID":"1985-006B","EPOCH":"2026-03-06T01:12:46.212768","MEAN_MOTION":14.37779346,"ECCENTRICITY":0.00185894,"INCLINATION":74.0433,"RA_OF_ASC_NODE":267.8456,"ARG_OF_PERICENTER":186.5184,"MEAN_ANOMALY":290.0064,"EPHEMERIS_TYPE":0,"CLASSIFICATION_TYPE":"U","NORAD_CAT_ID":15483,"ELEMENT_SET_NO":999,"REV_AT_EPOCH":15350,"BSTAR":7.1655666e-5,"MEAN_MOTION_DOT":1.9e-6,"MEAN_MOTION_DDOT":0},{"OBJECT_NAME":"SL-12 R/B(2)","OBJECT_ID":"1985-042D","EPOCH":"2026-03-06T05:59:01.393152","MEAN_MOTION":14.21981493,"ECCENTRICITY":0.00334016,"INCLINATION":71.1063,"RA_OF_ASC_NODE":94.998,"ARG_OF_PERICENTER":133.7852,"MEAN_ANOMALY":298.0198,"EPHEMERIS_TYPE":0,"CLASSIFICATION_TYPE":"U","NORAD_CAT_ID":15772,"ELEMENT_SET_NO":999,"REV_AT_EPOCH":11390,"BSTAR":6.5894496e-5,"MEAN_MOTION_DOT":9.9e-7,"MEAN_MOTION_DDOT":0},{"OBJECT_NAME":"SL-14 R/B","OBJECT_ID":"1985-069B","EPOCH":"2026-03-06T07:29:23.282592","MEAN_MOTION":14.86428553,"ECCENTRICITY":0.00181697,"INCLINATION":82.5279,"RA_OF_ASC_NODE":28.1085,"ARG_OF_PERICENTER":199.1044,"MEAN_ANOMALY":160.9494,"EPHEMERIS_TYPE":0,"CLASSIFICATION_TYPE":"U","NORAD_CAT_ID":15945,"ELEMENT_SET_NO":999,"REV_AT_EPOCH":17233,"BSTAR":8.5336169e-5,"MEAN_MOTION_DOT":7.8e-6,"MEAN_MOTION_DDOT":0},{"OBJECT_NAME":"SL-16 R/B","OBJECT_ID":"1985-097B","EPOCH":"2026-03-06T05:52:01.469280","MEAN_MOTION":14.1659961,"ECCENTRICITY":0.00099662,"INCLINATION":71.0034,"RA_OF_ASC_NODE":147.8072,"ARG_OF_PERICENTER":263.9336,"MEAN_ANOMALY":158.8528,"EPHEMERIS_TYPE":0,"CLASSIFICATION_TYPE":"U","NORAD_CAT_ID":16182,"ELEMENT_SET_NO":999,"REV_AT_EPOCH":8674,"BSTAR":-3.429159e-5,"MEAN_MOTION_DOT":-1.16e-6,"MEAN_MOTION_DDOT":0}]
